[{"OBJECT_NAME":"GAOFEN-7","OBJECT_ID":"2019-072A","EPOCH":"2026-03-09T22:50:27.042432","MEAN_MOTION":15.21321455,"ECCENTRICITY":0.00158441,"INCLINATION":97.254,"RA_OF_ASC_NODE":134.0948,"ARG_OF_PERICENTER":29.3011,"MEAN_ANOMALY":330.911,"EPHEMERIS_TYPE":0,"CLASSIFICATION_TYPE":"U","NORAD_CAT_ID":44703,"ELEMENT_SET_NO":999,"REV_AT_EPOCH":35255,"BSTAR":0.00025549913,"MEAN_MOTION_DOT":5.671e-5,"MEAN_MOTION_DDOT":0},{"OBJECT_NAME":"STARLINK-30602","OBJECT_ID":"2023-160G","EPOCH":"2026-03-09T01:02:16.046592","MEAN_MOTION":15.22911342,"ECCENTRICITY":8.15e-5,"INCLINATION":43.0026,"RA_OF_ASC_NODE":81.8046,"ARG_OF_PERICENTER":268.3637,"MEAN_ANOMALY":91.712,"EPHEMERIS_TYPE":0,"CLASSIFICATION_TYPE":"U","NORAD_CAT_ID":58081,"ELEMENT_SET_NO":999,"REV_AT_EPOCH":13284,"BSTAR":0.00020841055,"MEAN_MOTION_DOT":4.737e-5,"MEAN_MOTION_DDOT":0}]
